[{"OBJECT_NAME":"ONEWEB-0174","OBJECT_ID":"2021-025AG","EPOCH":"2026-03-09T17:16:42.965472","MEAN_MOTION":13.13470056,"ECCENTRICITY":0.00017507,"INCLINATION":87.9034,"RA_OF_ASC_NODE":340.0081,"ARG_OF_PERICENTER":73.6886,"MEAN_ANOMALY":286.4436,"EPHEMERIS_TYPE":0,"CLASSIFICATION_TYPE":"U","NORAD_CAT_ID":48072,"ELEMENT_SET_NO":999,"REV_AT_EPOCH":24077,"BSTAR":9.8991662e-5,"MEAN_MOTION_DOT":4.9e-7,"MEAN_MOTION_DDOT":0},{"OBJECT_NAME":"COSMOS 1275 DEB","OBJECT_ID":"1981-053EB","EPOCH":"2026-03-09T19:57:45.160416","MEAN_MOTION":13.44974289,"ECCENTRICITY":0.01958865,"INCLINATION":83.096,"RA_OF_ASC_NODE":186.1067,"ARG_OF_PERICENTER":78.5052,"MEAN_ANOMALY":49.5123,"EPHEMERIS_TYPE":0,"CLASSIFICATION_TYPE":"U","NORAD_CAT_ID":12947,"ELEMENT_SET_NO":999,"REV_AT_EPOCH":16777,"BSTAR":0.00053497689,"MEAN_MOTION_DOT":3.69e-6,"MEAN_MOTION_DDOT":0}]
